[{"OBJECT_NAME":"CUBEBEL 2 (EU11S)","OBJECT_ID":"2023-091K","EPOCH":"2026-03-09T21:40:29.186112","MEAN_MOTION":15.26706784,"ECCENTRICITY":0.00118653,"INCLINATION":97.517,"RA_OF_ASC_NODE":131.3579,"ARG_OF_PERICENTER":105.889,"MEAN_ANOMALY":254.3657,"EPHEMERIS_TYPE":0,"CLASSIFICATION_TYPE":"U","NORAD_CAT_ID":57175,"ELEMENT_SET_NO":999,"REV_AT_EPOCH":14914,"BSTAR":0.00056688644,"MEAN_MOTION_DOT":0.00014859,"MEAN_MOTION_DDOT":0},{"OBJECT_NAME":"STARLINK-30452","OBJECT_ID":"2023-147N","EPOCH":"2026-03-09T22:00:01.999584","MEAN_MOTION":15.21323412,"ECCENTRICITY":0.00019563,"INCLINATION":42.9992,"RA_OF_ASC_NODE":324.1266,"ARG_OF_PERICENTER":270.3007,"MEAN_ANOMALY":327.5066,"EPHEMERIS_TYPE":0,"CLASSIFICATION_TYPE":"U","NORAD_CAT_ID":57925,"ELEMENT_SET_NO":999,"REV_AT_EPOCH":572,"BSTAR":0.082226416,"MEAN_MOTION_DOT":0.02092883,"MEAN_MOTION_DDOT":0}]
